BREEZE-M R/B            
1 32375U 07058C   26094.70015178 -.00000157  00000+0  00000+0 0  9992
2 32375  11.2170  25.9440 0250560 216.6552 328.7030  1.04429442 69708
HORIZONS-2              
1 32388U 07063B   26095.51645824 -.00000251  00000+0  00000+0 0  9994
2 32388   2.4148  81.5078 0002876 307.2774 277.1466  1.00270499 67083
THURAYA-3               
1 32404U 08001A   26095.56785238 -.00000299  00000+0  00000+0 0  9997
2 32404   5.8682  35.6684 0002393 341.1119 120.0270  1.00273153 66762
BLOCK DM-SL R/B         
1 32405U 08001B   26095.24208822 -.00000079  00000+0 -79474-4 0  9995
2 32405   6.3683  11.3949 7124345 282.9921 346.1499  2.25221509149950
EXPRESS-AM33            
1 32478U 08003A   26090.68874784  .00000143  00000+0  00000+0 0  9990
2 32478   4.6040  76.2589 0013579 180.1473 213.6462  1.00184844 52962
BREEZE-M R/B            
1 32479U 08003B   26095.03197198 -.00000091  00000+0  00000+0 0  9995
2 32479  11.2234  27.6377 0198132 238.1161 301.1519  1.04002565 68847
THOR 5                  
1 32487U 08006A   26095.24568988 -.00000008  00000+0  00000+0 0  9997
2 32487   0.0171 232.5275 0002545 148.4467 260.2692  1.00271532 66584
BREEZE-M R/B            
1 32488U 08006B   26094.44085485 -.00000136  00000+0  51154-3 0  9997
2 32488  48.5920 190.1257 7125157 356.3792   0.4651  2.21550654146550
KIZUNA (WINDS)          
1 32500U 08007A   26095.23364271 -.00000020  00000+0  00000+0 0  9996
2 32500   8.3566  62.9739 0000354 202.3634  10.0456  1.00288786 66163
AMC-14                  
1 32708U 08011A   26093.90013594  .00000082  00000+0  00000+0 0  9999
2 32708  23.9019  21.4145 0051287  23.8202 156.9389  1.00333958 67425
DIRECTV 11              
1 32729U 08013A   26095.40114177 -.00000125  00000+0  00000+0 0  9999
2 32729   0.0146 336.8614 0000313   2.9556 259.1033  1.00273424 44869
ICO G1                  
1 32763U 08016A   26095.37197481 -.00000170  00000+0  00000+0 0  9995
2 32763   5.5170  36.2947 0002477 320.3360 238.1123  1.00273127 65812
VINASAT-1               
1 32767U 08018A   26095.53655978 -.00000327  00000+0  00000+0 0  9993
2 32767   0.0102 216.8706 0002656 196.9156 105.1559  1.00272491 65863
STAR ONE C2             
1 32768U 08018B   26095.51819159 -.00000275  00000+0  00000+0 0  9997
2 32768   1.0552  83.0588 0002581 289.6625 302.6549  1.00271494 65926
AMOS-3                  
1 32794U 08022A   26095.34211547 -.00000033  00000+0  00000+0 0  9991
2 32794   0.2672  87.1315 0000424 201.7111  23.8628  1.00274057 81602
GALAXY 18 (G-18)        
1 32951U 08024A   26095.53692215  .00000000  00000+0  00000+0 0  9997
2 32951   0.0165 199.2481 0003100 182.9227 241.9661  1.00271859 45127
BLOCK DM-SL R/B         
1 32952U 08024B   26095.25539823 -.00000076  00000+0  00000+0 0  9996
2 32952   1.2903  10.3482 6537175 103.2782 332.0406  2.14621644140095
