[{"OBJECT_NAME":"BREEZE-M R/B","OBJECT_ID":"2007-058C","EPOCH":"2026-04-04T16:48:13.113792","MEAN_MOTION":1.04429442,"ECCENTRICITY":0.02505601,"INCLINATION":11.217,"RA_OF_ASC_NODE":25.944,"ARG_OF_PERICENTER":216.6552,"MEAN_ANOMALY":328.703,"EPHEMERIS_TYPE":0,"CLASSIFICATION_TYPE":"U","NORAD_CAT_ID":32375,"ELEMENT_SET_NO":999,"REV_AT_EPOCH":6970,"BSTAR":0,"MEAN_MOTION_DOT":-1.57e-6,"MEAN_MOTION_DDOT":0},{"OBJECT_NAME":"HORIZONS-2","OBJECT_ID":"2007-063B","EPOCH":"2026-04-05T12:23:41.991936","MEAN_MOTION":1.00270499,"ECCENTRICITY":0.00028769,"INCLINATION":2.4148,"RA_OF_ASC_NODE":81.5078,"ARG_OF_PERICENTER":307.2774,"MEAN_ANOMALY":277.1466,"EPHEMERIS_TYPE":0,"CLASSIFICATION_TYPE":"U","NORAD_CAT_ID":32388,"ELEMENT_SET_NO":999,"REV_AT_EPOCH":6708,"BSTAR":0,"MEAN_MOTION_DOT":-2.51e-6,"MEAN_MOTION_DDOT":0},{"OBJECT_NAME":"THURAYA-3","OBJECT_ID":"2008-001A","EPOCH":"2026-04-05T13:37:42.445632","MEAN_MOTION":1.00273153,"ECCENTRICITY":0.00023935,"INCLINATION":5.8682,"RA_OF_ASC_NODE":35.6684,"ARG_OF_PERICENTER":341.1119,"MEAN_ANOMALY":120.027,"EPHEMERIS_TYPE":0,"CLASSIFICATION_TYPE":"U","NORAD_CAT_ID":32404,"ELEMENT_SET_NO":999,"REV_AT_EPOCH":6676,"BSTAR":0,"MEAN_MOTION_DOT":-2.99e-6,"MEAN_MOTION_DDOT":0},{"OBJECT_NAME":"BLOCK DM-SL R/B","OBJECT_ID":"2008-001B","EPOCH":"2026-04-05T05:48:36.422208","MEAN_MOTION":2.25221509,"ECCENTRICITY":0.7124345,"INCLINATION":6.3683,"RA_OF_ASC_NODE":11.3949,"ARG_OF_PERICENTER":282.9921,"MEAN_ANOMALY":346.1499,"EPHEMERIS_TYPE":0,"CLASSIFICATION_TYPE":"U","NORAD_CAT_ID":32405,"ELEMENT_SET_NO":999,"REV_AT_EPOCH":14995,"BSTAR":-7.9474e-5,"MEAN_MOTION_DOT":-7.9e-7,"MEAN_MOTION_DDOT":0},{"OBJECT_NAME":"EXPRESS-AM33","OBJECT_ID":"2008-003A","EPOCH":"2026-03-31T16:31:47.813376","MEAN_MOTION":1.00184844,"ECCENTRICITY":0.00135795,"INCLINATION":4.604,"RA_OF_ASC_NODE":76.2589,"ARG_OF_PERICENTER":180.1473,"MEAN_ANOMALY":213.6462,"EPHEMERIS_TYPE":0,"CLASSIFICATION_TYPE":"U","NORAD_CAT_ID":32478,"ELEMENT_SET_NO":999,"REV_AT_EPOCH":5296,"BSTAR":0,"MEAN_MOTION_DOT":1.43e-6,"MEAN_MOTION_DDOT":0},{"OBJECT_NAME":"BREEZE-M R/B","OBJECT_ID":"2008-003B","EPOCH":"2026-04-05T00:46:02.379072","MEAN_MOTION":1.04002565,"ECCENTRICITY":0.01981325,"INCLINATION":11.2234,"RA_OF_ASC_NODE":27.6377,"ARG_OF_PERICENTER":238.1161,"MEAN_ANOMALY":301.1519,"EPHEMERIS_TYPE":0,"CLASSIFICATION_TYPE":"U","NORAD_CAT_ID":32479,"ELEMENT_SET_NO":999,"REV_AT_EPOCH":6884,"BSTAR":0,"MEAN_MOTION_DOT":-9.1e-7,"MEAN_MOTION_DDOT":0},{"OBJECT_NAME":"THOR 5","OBJECT_ID":"2008-006A","EPOCH":"2026-04-05T05:53:47.605632","MEAN_MOTION":1.00271532,"ECCENTRICITY":0.0002545,"INCLINATION":0.0171,"RA_OF_ASC_NODE":232.5275,"ARG_OF_PERICENTER":148.4467,"MEAN_ANOMALY":260.2692,"EPHEMERIS_TYPE":0,"CLASSIFICATION_TYPE":"U","NORAD_CAT_ID":32487,"ELEMENT_SET_NO":999,"REV_AT_EPOCH":6658,"BSTAR":0,"MEAN_MOTION_DOT":-8.0e-8,"MEAN_MOTION_DDOT":0},{"OBJECT_NAME":"BREEZE-M R/B","OBJECT_ID":"2008-006B","EPOCH":"2026-04-04T10:34:49.859040","MEAN_MOTION":2.21550654,"ECCENTRICITY":0.71251579,"INCLINATION":48.592,"RA_OF_ASC_NODE":190.1257,"ARG_OF_PERICENTER":356.3792,"MEAN_ANOMALY":0.4651,"EPHEMERIS_TYPE":0,"CLASSIFICATION_TYPE":"U","NORAD_CAT_ID":32488,"ELEMENT_SET_NO":999,"REV_AT_EPOCH":14655,"BSTAR":0.0005115405,"MEAN_MOTION_DOT":-1.36e-6,"MEAN_MOTION_DDOT":0},{"OBJECT_NAME":"KIZUNA (WINDS)","OBJECT_ID":"2008-007A","EPOCH":"2026-04-05T05:36:26.730144","MEAN_MOTION":1.00288786,"ECCENTRICITY":3.545e-5,"INCLINATION":8.3566,"RA_OF_ASC_NODE":62.9739,"ARG_OF_PERICENTER":202.3634,"MEAN_ANOMALY":10.0456,"EPHEMERIS_TYPE":0,"CLASSIFICATION_TYPE":"U","NORAD_CAT_ID":32500,"ELEMENT_SET_NO":999,"REV_AT_EPOCH":6616,"BSTAR":0,"MEAN_MOTION_DOT":-2.0e-7,"MEAN_MOTION_DDOT":0},{"OBJECT_NAME":"AMC-14","OBJECT_ID":"2008-011A","EPOCH":"2026-04-03T21:36:11.745216","MEAN_MOTION":1.00333958,"ECCENTRICITY":0.00512876,"INCLINATION":23.9019,"RA_OF_ASC_NODE":21.4145,"ARG_OF_PERICENTER":23.8202,"MEAN_ANOMALY":156.9389,"EPHEMERIS_TYPE":0,"CLASSIFICATION_TYPE":"U","NORAD_CAT_ID":32708,"ELEMENT_SET_NO":999,"REV_AT_EPOCH":6742,"BSTAR":0,"MEAN_MOTION_DOT":8.2e-7,"MEAN_MOTION_DDOT":0},{"OBJECT_NAME":"DIRECTV 11","OBJECT_ID":"2008-013A","EPOCH":"2026-04-05T09:37:38.648928","MEAN_MOTION":1.00273424,"ECCENTRICITY":3.13e-5,"INCLINATION":0.0146,"RA_OF_ASC_NODE":336.8614,"ARG_OF_PERICENTER":2.9556,"MEAN_ANOMALY":259.1033,"EPHEMERIS_TYPE":0,"CLASSIFICATION_TYPE":"U","NORAD_CAT_ID":32729,"ELEMENT_SET_NO":999,"REV_AT_EPOCH":4486,"BSTAR":0,"MEAN_MOTION_DOT":-1.25e-6,"MEAN_MOTION_DDOT":0},{"OBJECT_NAME":"ICO G1","OBJECT_ID":"2008-016A","EPOCH":"2026-04-05T08:55:38.623584","MEAN_MOTION":1.00273127,"ECCENTRICITY":0.00024773,"INCLINATION":5.517,"RA_OF_ASC_NODE":36.2947,"ARG_OF_PERICENTER":320.336,"MEAN_ANOMALY":238.1123,"EPHEMERIS_TYPE":0,"CLASSIFICATION_TYPE":"U","NORAD_CAT_ID":32763,"ELEMENT_SET_NO":999,"REV_AT_EPOCH":6581,"BSTAR":0,"MEAN_MOTION_DOT":-1.7e-6,"MEAN_MOTION_DDOT":0},{"OBJECT_NAME":"VINASAT-1","OBJECT_ID":"2008-018A","EPOCH":"2026-04-05T12:52:38.764992","MEAN_MOTION":1.00272491,"ECCENTRICITY":0.00026562,"INCLINATION":0.0102,"RA_OF_ASC_NODE":216.8706,"ARG_OF_PERICENTER":196.9156,"MEAN_ANOMALY":105.1559,"EPHEMERIS_TYPE":0,"CLASSIFICATION_TYPE":"U","NORAD_CAT_ID":32767,"ELEMENT_SET_NO":999,"REV_AT_EPOCH":6586,"BSTAR":0,"MEAN_MOTION_DOT":-3.27e-6,"MEAN_MOTION_DDOT":0},{"OBJECT_NAME":"STAR ONE C2","OBJECT_ID":"2008-018B","EPOCH":"2026-04-05T12:26:11.753376","MEAN_MOTION":1.00271494,"ECCENTRICITY":0.00025817,"INCLINATION":1.0552,"RA_OF_ASC_NODE":83.0588,"ARG_OF_PERICENTER":289.6625,"MEAN_ANOMALY":302.6549,"EPHEMERIS_TYPE":0,"CLASSIFICATION_TYPE":"U","NORAD_CAT_ID":32768,"ELEMENT_SET_NO":999,"REV_AT_EPOCH":6592,"BSTAR":0,"MEAN_MOTION_DOT":-2.75e-6,"MEAN_MOTION_DDOT":0},{"OBJECT_NAME":"AMOS-3","OBJECT_ID":"2008-022A","EPOCH":"2026-04-05T08:12:38.776608","MEAN_MOTION":1.00274057,"ECCENTRICITY":4.243e-5,"INCLINATION":0.2672,"RA_OF_ASC_NODE":87.1315,"ARG_OF_PERICENTER":201.7111,"MEAN_ANOMALY":23.8628,"EPHEMERIS_TYPE":0,"CLASSIFICATION_TYPE":"U","NORAD_CAT_ID":32794,"ELEMENT_SET_NO":999,"REV_AT_EPOCH":8160,"BSTAR":0,"MEAN_MOTION_DOT":-3.3e-7,"MEAN_MOTION_DDOT":0},{"OBJECT_NAME":"GALAXY 18 (G-18)","OBJECT_ID":"2008-024A","EPOCH":"2026-04-05T12:53:10.073760","MEAN_MOTION":1.00271859,"ECCENTRICITY":0.00031007,"INCLINATION":0.0165,"RA_OF_ASC_NODE":199.2481,"ARG_OF_PERICENTER":182.9227,"MEAN_ANOMALY":241.9661,"EPHEMERIS_TYPE":0,"CLASSIFICATION_TYPE":"U","NORAD_CAT_ID":32951,"ELEMENT_SET_NO":999,"REV_AT_EPOCH":4512,"BSTAR":0,"MEAN_MOTION_DOT":0,"MEAN_MOTION_DDOT":0},{"OBJECT_NAME":"BLOCK DM-SL R/B","OBJECT_ID":"2008-024B","EPOCH":"2026-04-05T06:07:46.407072","MEAN_MOTION":2.14621644,"ECCENTRICITY":0.65371752,"INCLINATION":1.2903,"RA_OF_ASC_NODE":10.3482,"ARG_OF_PERICENTER":103.2782,"MEAN_ANOMALY":332.0406,"EPHEMERIS_TYPE":0,"CLASSIFICATION_TYPE":"U","NORAD_CAT_ID":32952,"ELEMENT_SET_NO":999,"REV_AT_EPOCH":14009,"BSTAR":0,"MEAN_MOTION_DOT":-7.6e-7,"MEAN_MOTION_DDOT":0}]
